OBJECT_NAME,OBJECT_ID,EPOCH,MEAN_MOTION,ECCENTRICITY,INCLINATION,RA_OF_ASC_NODE,ARG_OF_PERICENTER,MEAN_ANOMALY,EPHEMERIS_TYPE,CLASSIFICATION_TYPE,NORAD_CAT_ID,ELEMENT_SET_NO,REV_AT_EPOCH,BSTAR,MEAN_MOTION_DOT,MEAN_MOTION_DDOT
TIANMU-1 21,2023-208C,2026-06-27T11:32:56.603616,15.35253618,.0005654,97.4512,298.2058,278.2578,81.8024,0,U,58662,999,13914,.29703E-3,.10092E-3,0
TIANMU-1 22,2023-208D,2026-06-27T12:42:13.974624,15.31197457,.0002369,97.4507,294.8100,317.2886,42.8171,0,U,58663,999,13891,.26906E-3,.8031E-4,0
TIANMU-1 15,2024-004A,2026-06-27T12:25:53.677632,15.26813031,.0005662,97.4663,4.7099,308.8923,51.1810,0,U,58700,999,13735,.22047E-3,.5737E-4,0
TIANMU-1 16,2024-004B,2026-06-27T12:12:15.392736,15.26850204,.0004824,97.4610,3.9270,328.5516,31.5434,0,U,58701,999,13735,.22109E-3,.5759E-4,0
TIANMU-1 17,2024-004C,2026-06-27T13:25:41.599200,15.26848947,.00045,97.4639,4.4667,336.2045,23.8984,0,U,58702,999,13735,.21087E-3,.5489E-4,0
TIANMU-1 18,2024-004D,2026-06-27T12:49:52.660992,15.26768542,.0003578,97.4656,4.7027,313.4374,46.6566,0,U,58703,999,13735,.22988E-3,.5975E-4,0
INSAT-3DS,2024-033A,2026-06-27T11:11:07.279008,1.00270585,.0001483,0.0626,100.1026,347.4778,77.8457,0,U,58990,999,4717,0,-.144E-5,0
METEOR-M2 4,2024-039A,2026-06-27T12:34:08.495616,14.22430506,.0007833,98.7014,137.6919,133.2656,226.9177,0,U,59051,999,12073,.17394E-4,-.5E-7,0
GOES 19,2024-119A,2026-06-27T12:08:53.901888,1.00271109,.000058,0.0118,110.9220,30.5343,241.1883,0,U,60133,999,706,0,-.237E-5,0
MTG-S1,2025-143A,2026-06-27T09:04:58.176768,1.00271886,.0002754,0.5950,341.1398,268.7341,161.3930,0,U,64723,999,352,0,.4E-7,0
METOP-SGA1,2025-172A,2026-06-27T03:31:07.460832,14.19816576,.00080908,98.6642,237.6630,24.8481,335.3084,0,U,65159,999,4520,.39350992E-4,.4E-6,0
FENGYUN 3H,2025-219A,2026-06-27T11:16:52.439232,14.19922106,.0001499,98.6770,119.0393,69.9294,290.2044,0,U,65815,999,3884,.36674E-4,.35E-6,0
