TIANMU-1 21             
1 58662U 23208C   26178.48121069  .00010092  00000+0  29703-3 0  9992
2 58662  97.4512 298.2058 0005654 278.2578  81.8024 15.35253618139140
TIANMU-1 22             
1 58663U 23208D   26178.52932841  .00008031  00000+0  26906-3 0  9998
2 58663  97.4507 294.8100 0002369 317.2886  42.8171 15.31197457138919
TIANMU-1 15             
1 58700U 24004A   26178.51798238  .00005737  00000+0  22047-3 0  9996
2 58700  97.4663   4.7099 0005662 308.8923  51.1810 15.26813031137353
TIANMU-1 16             
1 58701U 24004B   26178.50851149  .00005759  00000+0  22109-3 0  9990
2 58701  97.4610   3.9270 0004824 328.5516  31.5434 15.26850204137351
TIANMU-1 17             
1 58702U 24004C   26178.55950925  .00005489  00000+0  21087-3 0  9992
2 58702  97.4639   4.4667 0004500 336.2045  23.8984 15.26848947137358
TIANMU-1 18             
1 58703U 24004D   26178.53463728  .00005975  00000+0  22988-3 0  9992
2 58703  97.4656   4.7027 0003578 313.4374  46.6566 15.26768542137358
INSAT-3DS               
1 58990U 24033A   26178.46605647 -.00000144  00000+0  00000+0 0  9993
2 58990   0.0626 100.1026 0001483 347.4778  77.8457  1.00270585 47178
METEOR-M2 4             
1 59051U 24039A   26178.52370944 -.00000005  00000+0  17394-4 0  9999
2 59051  98.7014 137.6919 0007833 133.2656 226.9177 14.22430506120738
GOES 19                 
1 60133U 24119A   26178.50617942 -.00000237  00000+0  00000+0 0  9999
2 60133   0.0118 110.9220 0000580  30.5343 241.1883  1.00271109  7062
MTG-S1                  
1 64723U 25143A   26178.37845112  .00000004  00000+0  00000+0 0  9994
2 64723   0.5950 341.1398 0002754 268.7341 161.3930  1.00271886  3527
METOP-SGA1              
1 65159U 25172A   26178.14661413  .00000040  00000+0  39351-4 0  9991
2 65159  98.6642 237.6630 0008090  24.8481 335.3084 14.19816576 45209
FENGYUN 3H              
1 65815U 25219A   26178.47005138  .00000035  00000+0  36674-4 0  9993
2 65815  98.6770 119.0393 0001499  69.9294 290.2044 14.19922106 38841
